NORAD_CAT_ID,OBJECT_NAME,OBJECT_TYPE,EPOCH,MEAN_MOTION,ECCENTRICITY,INCLINATION,RA_OF_ASC_NODE,ARG_OF_PERICENTER,MEAN_ANOMALY,BSTAR,MEAN_MOTION_DOT,MEAN_MOTION_DDOT,TLE_LINE0,TLE_LINE1,TLE_LINE2,SEMIMAJOR_AXIS,PERIOD,APOGEE,PERIGEE,DECAYED
51971.0,STARLINK-3669,PAYLOAD,2024-02-17 13:33:22,15.06403307,0.0001941,53.0576,158.2565,92.5153,267.6058,-0.00017849,-2.94e-05,0.0,0 STARLINK-3669,1 51971U 22025R   24048.56483864 -.00002940  00000-0 -17849-3 0  9995,2 51971  53.0576 158.2565 0001941  92.5153 267.6058 15.06403307107778,6925.338,95.592,548.548,545.859,0.0
51971.0,STARLINK-3669,PAYLOAD,2024-02-18 13:26:26,15.06408764,0.0001671,53.0558,153.7915,91.7344,268.3836,6.5048e-05,6.88e-06,0.0,0 STARLINK-3669,1 51971U 22025R   24049.56003083  .00000688  00000-0  65048-4 0  9997,2 51971  53.0558 153.7915 0001671  91.7344 268.3836 15.06408764107921,6925.322,95.592,548.344,546.029,0.0
51971.0,STARLINK-3669,PAYLOAD,2024-02-18 16:37:31,15.06411887,0.0001757,53.0556,153.1949,106.6379,253.4803,0.00011266,1.397e-05,0.0,0 STARLINK-3669,1 51971U 22025R   24049.69272019  .00001397  00000-0  11266-3 0  9998,2 51971  53.0556 153.1949 0001757 106.6379 253.4803 15.06411887109054,6925.312,95.591,548.394,545.96,0.0
51971.0,STARLINK-3669,PAYLOAD,2024-02-19 11:44:00,15.06377379,0.0002204,53.0558,149.6162,119.7338,240.3871,0.00030226,4.221e-05,0.0,0 STARLINK-3669,1 51971U 22025R   24050.48890037  .00004221  00000-0  30226-3 0  9999,2 51971  53.0558 149.6162 0002204 119.7338 240.3871 15.06377379109171,6925.418,95.594,548.809,545.757,0.0
51971.0,STARLINK-3669,PAYLOAD,2024-02-19 13:19:33,15.06395022,0.0001554,53.0549,149.3252,92.6905,267.4262,7.4159e-05,8.23e-06,0.0,0 STARLINK-3669,1 51971U 22025R   24050.55524527  .00000823  00000-0  74159-4 0  9993,2 51971  53.0549 149.3252 0001554  92.6905 267.4262 15.06395022108071,6925.364,95.592,548.305,546.153,0.0
51971.0,STARLINK-3669,PAYLOAD,2024-02-19 22:52:47,15.06394859,0.0001539,53.055,147.5384,92.5539,267.5626,6.2943e-05,6.56e-06,0.0,0 STARLINK-3669,1 51971U 22025R   24050.95332717  .00000656  00000-0  62943-4 0  9997,2 51971  53.0550 147.5384 0001539  92.5539 267.5626 15.06394859108133,6925.364,95.592,548.295,546.164,0.0
51971.0,STARLINK-3669,PAYLOAD,2024-02-20 13:12:38,15.06403327,0.0001564,53.0555,144.8608,103.9926,256.1237,4.7803e-06,-2.1e-06,0.0,0 STARLINK-3669,1 51971U 22025R   24051.55044647 -.00000210  00000-0  47803-5 0  9992,2 51971  53.0555 144.8608 0001564 103.9926 256.1237 15.06403327108225,6925.338,95.592,548.286,546.12,0.0
51971.0,STARLINK-3669,PAYLOAD,2024-02-21 11:30:11,15.06399373,0.0001542,53.0553,140.6911,100.6103,259.5059,0.00014498,1.879e-05,0.0,0 STARLINK-3669,1 51971U 22025R   24052.47930299  .00001879  00000-0  14498-3 0  9994,2 51971  53.0553 140.6911 0001542 100.6103 259.5059 15.06399373109473,6925.35,95.592,548.283,546.148,0.0
51971.0,STARLINK-3669,PAYLOAD,2024-02-21 13:05:44,15.06400609,0.0001543,53.0556,140.3931,100.0154,260.1009,0.00015219,1.986e-05,0.0,0 STARLINK-3669,1 51971U 22025R   24052.54564851  .00001986  00000-0  15219-3 0  9990,2 51971  53.0556 140.3931 0001543 100.0154 260.1009 15.06400609108372,6925.347,95.592,548.28,546.143,0.0
51971.0,STARLINK-3669,PAYLOAD,2024-02-22 11:23:19,15.0637179,0.0001361,53.0555,136.2229,86.925,273.1895,-0.00014114,-2.381e-05,0.0,0 STARLINK-3669,1 51971U 22025R   24053.47453337 -.00002381  00000-0 -14114-3 0  9994,2 51971  53.0555 136.2229 0001361  86.9250 273.1895 15.06371790109626,6925.435,95.594,548.243,546.357,0.0
51971.0,STARLINK-3669,PAYLOAD,2024-02-22 12:58:51,15.06375873,0.0001372,53.055,135.9231,81.4292,278.6852,-0.00012904,-2.202e-05,0.0,0 STARLINK-3669,1 51971U 22025R   24053.54087831 -.00002202  00000-0 -12904-3 0  9991,2 51971  53.0550 135.9231 0001372  81.4292 278.6852 15.06375873108525,6925.423,95.594,548.238,546.337,0.0
51971.0,STARLINK-3669,PAYLOAD,2024-02-23 11:16:24,15.06399128,0.00014,53.0558,131.7568,94.3254,265.7895,1.9219e-05,5e-08,0.0,0 STARLINK-3669,1 51971U 22025R   24054.46972233  .00000005  00000-0  19219-4 0  9996,2 51971  53.0558 131.7568 0001400  94.3254 265.7895 15.06399128109774,6925.351,95.592,548.186,546.247,0.0
51971.0,STARLINK-3669,PAYLOAD,2024-02-23 12:51:55,15.06410804,0.0001497,53.0549,131.4558,80.0949,280.0209,0.00012235,1.542e-05,0.0,0 STARLINK-3669,1 51971U 22025R   24054.53605842  .00001542  00000-0  12235-3 0  9990,2 51971  53.0549 131.4558 0001497  80.0949 280.0209 15.06410804108671,6925.315,95.591,548.217,546.144,0.0
51971.0,STARLINK-3669,PAYLOAD,2024-02-23 22:25:09,15.06410255,0.000154,53.0547,129.6696,78.4164,281.6998,0.00014696,1.909e-05,0.0,0 STARLINK-3669,1 51971U 22025R   24054.93413780  .00001909  00000-0  14696-3 0  9992,2 51971  53.0547 129.6696 0001540  78.4164 281.6998 15.06410255108739,6925.317,95.591,548.249,546.116,0.0
51971.0,STARLINK-3669,PAYLOAD,2024-02-24 11:09:29,15.06407203,0.000169,53.054,127.2847,72.6739,287.4434,0.00055122,7.94e-05,0.0,0 STARLINK-3669,1 51971U 22025R   24055.46492002  .00007940  00000-0  55122-3 0  9995,2 51971  53.0540 127.2847 0001690  72.6739 287.4434 15.06407203109924,6925.326,95.592,548.362,546.021,0.0
51971.0,STARLINK-3669,PAYLOAD,2024-02-25 04:40:23,15.06431998,0.0001683,53.0542,124.0086,76.2168,283.9008,0.00032316,4.539e-05,0.0,0 STARLINK-3669,1 51971U 22025R   24056.19471342  .00004539  00000-0  32316-3 0  9991,2 51971  53.0542 124.0086 0001683  76.2168 283.9008 15.06431998110034,6925.25,95.59,548.281,545.95,0.0
51971.0,STARLINK-3669,PAYLOAD,2024-02-25 11:02:33,15.06392538,0.0001566,53.0538,122.8167,86.9488,273.1681,-0.0003239,-5.102e-05,0.0,0 STARLINK-3669,1 51971U 22025R   24056.46011522 -.00005102  00000-0 -32390-3 0  9992,2 51971  53.0538 122.8167 0001566  86.9488 273.1681 15.06392538110076,6925.371,95.593,548.321,546.152,0.0
51971.0,STARLINK-3669,PAYLOAD,2024-02-25 14:13:38,15.06394221,0.0001565,53.0538,122.2206,94.0672,266.0496,-0.000285,-4.523e-05,0.0,0 STARLINK-3669,1 51971U 22025R   24056.59280822 -.00004523  00000-0 -28500-3 0  9991,2 51971  53.0538 122.2206 0001565  94.0672 266.0496 15.06394221108981,6925.366,95.593,548.315,546.147,0.0
51971.0,STARLINK-3669,PAYLOAD,2024-02-26 09:20:07,15.06392521,0.0001637,53.0536,118.6456,95.0258,265.0918,-0.00017368,-2.867e-05,0.0,0 STARLINK-3669,1 51971U 22025R   24057.38897330 -.00002867  00000-0 -17368-3 0  9996,2 51971  53.0536 118.6456 0001637  95.0258 265.0918 15.06392521109100,6925.371,95.593,548.37,546.103,0.0
51971.0,STARLINK-3669,PAYLOAD,2024-02-27 10:48:45,15.06402755,0.0001588,53.0543,113.8837,90.5444,269.5727,0.00058927,8.507e-05,0.0,0 STARLINK-3669,1 51971U 22025R   24058.45052859  .00008507  00000-0  58927-3 0  9995,2 51971  53.0543 113.8837 0001588  90.5444 269.5727 15.06402755110379,6925.34,95.592,548.305,546.105,0.0
51971.0,STARLINK-3669,PAYLOAD,2024-02-27 12:24:18,15.06406029,0.0001576,53.054,113.5852,88.2726,271.8444,0.00066509,9.64e-05,0.0,0 STARLINK-3669,1 51971U 22025R   24058.51687530  .00009640  00000-0  66509-3 0  9996,2 51971  53.0540 113.5852 0001576  88.2726 271.8444 15.06406029109271,6925.33,95.592,548.287,546.104,0.0
51971.0,STARLINK-3669,PAYLOAD,2024-02-28 12:17:23,15.06408602,0.0001611,53.054,109.1174,83.0349,277.0823,0.00030789,4.308e-05,0.0,0 STARLINK-3669,1 51971U 22025R   24059.51207430  .00004308  00000-0  30789-3 0  9991,2 51971  53.0540 109.1174 0001611  83.0349 277.0823 15.06408602110532,6925.322,95.592,548.303,546.072,0.0
51971.0,STARLINK-3669,PAYLOAD,2024-02-29 04:12:46,15.06401951,0.0001622,53.0539,106.1384,81.5148,278.6025,5.3431e-05,5.14e-06,0.0,0 STARLINK-3669,1 51971U 22025R   24060.17554270  .00000514  00000-0  53431-4 0  9997,2 51971  53.0539 106.1384 0001622  81.5148 278.6025 15.06401951110634,6925.343,95.592,548.331,546.084,0.0
51971.0,STARLINK-3669,PAYLOAD,2024-02-29 10:34:56,15.06402385,0.0001604,53.0543,104.947,82.076,278.0411,4.5746e-05,4e-06,0.0,0 STARLINK-3669,1 51971U 22025R   24060.44093053  .00000400  00000-0  45746-4 0  9998,2 51971  53.0543 104.9470 0001604  82.0760 278.0411 15.06402385109562,6925.341,95.592,548.317,546.095,0.0
51971.0,STARLINK-3669,PAYLOAD,2024-02-29 20:08:10,15.06400176,0.0001637,53.0545,103.1599,84.0722,276.0454,-2.3509e-05,-6.32e-06,0.0,0 STARLINK-3669,1 51971U 22025R   24060.83901233 -.00000632  00000-0 -23509-4 0  9991,2 51971  53.0545 103.1599 0001637  84.0722 276.0454 15.06400176109621,6925.348,95.592,548.347,546.079,0.0
51971.0,STARLINK-3669,PAYLOAD,2024-03-01 02:30:20,15.06398789,0.0001585,53.0548,101.9707,86.4973,273.6197,2.7524e-05,1.28e-06,0.0,0 STARLINK-3669,1 51971U 22025R   24061.10440434  .00000128  00000-0  27524-4 0  9992,2 51971  53.0548 101.9707 0001585  86.4973 273.6197 15.06398789110778,6925.352,95.592,548.315,546.12,0.0
51971.0,STARLINK-3669,PAYLOAD,2024-03-01 08:52:29,15.0640029,0.0001439,53.0537,100.7773,92.7373,267.3781,2.073e-05,2.7e-07,0.0,0 STARLINK-3669,1 51971U 22025R   24061.36978982  .00000027  00000-0  20730-4 0  9994,2 51971  53.0537 100.7773 0001439  92.7373 267.3781 15.06400290109709,6925.348,95.592,548.209,546.216,0.0
51971.0,STARLINK-3669,PAYLOAD,2024-03-02 08:45:34,15.06406331,0.0001483,53.054,96.3094,91.4935,268.6224,0.00014147,1.827e-05,0.0,0 STARLINK-3669,1 51971U 22025R   24062.36498444  .00001827  00000-0  14147-3 0  9998,2 51971  53.0540  96.3094 0001483  91.4935 268.6224 15.06406331110966,6925.329,95.592,548.221,546.167,0.0
51971.0,STARLINK-3669,PAYLOAD,2024-03-03 05:27:35,15.06405423,0.0001781,53.0554,92.4367,93.2719,266.8474,-0.00010449,-1.838e-05,0.0,0 STARLINK-3669,1 51971U 22025R   24063.22749885 -.00001838  00000-0 -10449-3 0  9997,2 51971  53.0554  92.4367 0001781  93.2719 266.8474 15.06405423111095,6925.332,95.592,548.43,545.964,0.0
51971.0,STARLINK-3669,PAYLOAD,2024-03-03 08:38:41,15.06393567,0.0001494,53.0531,91.8416,87.2789,272.8371,7.4674e-05,8.31e-06,0.0,0 STARLINK-3669,1 51971U 22025R   24063.36019697  .00000831  00000-0  74674-4 0  9994,2 51971  53.0531  91.8416 0001494  87.2789 272.8371 15.06393567111110,6925.368,95.593,548.268,546.199,0.0
